{
  "type": "FeatureCollection",
  "features": [
    {
      "type": "Feature",
      "properties": { "depth_ft": 0, "source": "OpenStreetMap way 83584201" },
      "geometry": {
        "type": "Polygon",
        "coordinates": [
          [
            [-149.9663972, 61.1382871],
            [-149.9662094, 61.1380929],
            [-149.9658219, 61.1378287],
            [-149.965663, 61.1378211],
            [-149.9651795, 61.1377977],
            [-149.9649341, 61.1377852],
            [-149.9641523, 61.1377872],
            [-149.9640106, 61.1377937],
            [-149.9637625, 61.1377883],
            [-149.9635946, 61.137779],
            [-149.9634253, 61.1378236],
            [-149.9633172, 61.1378419],
            [-149.9627226, 61.1379427],
            [-149.9622451, 61.13801],
            [-149.961065, 61.1381732],
            [-149.960491, 61.138313],
            [-149.9601047, 61.1384813],
            [-149.9599867, 61.1387376],
            [-149.9598687, 61.1391157],
            [-149.9600779, 61.1395196],
            [-149.9602117, 61.1396361],
            [-149.9605714, 61.1399468],
            [-149.9610918, 61.1403404],
            [-149.9615443, 61.1407064],
            [-149.9616551, 61.1407961],
            [-149.9616932, 61.1409866],
            [-149.9617131, 61.14123],
            [-149.9619234, 61.1414436],
            [-149.9618321, 61.1417489],
            [-149.9622773, 61.1419897],
            [-149.9624973, 61.1420933],
            [-149.9633127, 61.1420907],
            [-149.9641549, 61.1419923],
            [-149.9646162, 61.1419094],
            [-149.9647718, 61.1416505],
            [-149.9650025, 61.1414563],
            [-149.9650293, 61.1412622],
            [-149.9649542, 61.141055],
            [-149.9649971, 61.1407314],
            [-149.9649864, 61.1402886],
            [-149.9650346, 61.139965],
            [-149.9655443, 61.1394756],
            [-149.9657857, 61.1392089],
            [-149.96607, 61.138893],
            [-149.9662577, 61.1386625],
            [-149.9663918, 61.1384528],
            [-149.9663972, 61.1382871]
          ]
        ]
      }
    }
  ]
}
