{
  "type": "FeatureCollection",
  "features": [
    {
      "type": "Feature",
      "properties": {
        "depth_ft": 0,
        "source": "OpenStreetMap relation 3522417"
      },
      "geometry": {
        "type": "Polygon",
        "coordinates": [
          [
            [
              -149.5521772,
              61.3488681
            ],
            [
              -149.5521718,
              61.3488152
            ],
            [
              -149.5521344,
              61.3487657
            ],
            [
              -149.5520909,
              61.3487049
            ],
            [
              -149.5519649,
              61.34864
            ],
            [
              -149.5515369,
              61.3485006
            ],
            [
              -149.5511221,
              61.3483556
            ],
            [
              -149.5507501,
              61.3482246
            ],
            [
              -149.5505575,
              61.3481554
            ],
            [
              -149.5504039,
              61.3481287
            ],
            [
              -149.5501328,
              61.3481498
            ],
            [
              -149.549948,
              61.3482071
            ],
            [
              -149.5497633,
              61.3482746
            ],
            [
              -149.5496377,
              61.3482933
            ],
            [
              -149.5494924,
              61.3482774
            ],
            [
              -149.549416,
              61.3482386
            ],
            [
              -149.5493251,
              61.3482367
            ],
            [
              -149.5491987,
              61.3482702
            ],
            [
              -149.5491216,
              61.3482649
            ],
            [
              -149.549051,
              61.3482365
            ],
            [
              -149.5489711,
              61.3482398
            ],
            [
              -149.5488727,
              61.3482842
            ],
            [
              -149.5487995,
              61.3482751
            ],
            [
              -149.5487333,
              61.3483092
            ],
            [
              -149.5486599,
              61.3483974
            ],
            [
              -149.548305,
              61.3486221
            ],
            [
              -149.5481399,
              61.3487549
            ],
            [
              -149.5473091,
              61.3493324
            ],
            [
              -149.5469497,
              61.3496815
            ],
            [
              -149.5467229,
              61.3498417
            ],
            [
              -149.5465682,
              61.3498469
            ],
            [
              -149.5460933,
              61.3500953
            ],
            [
              -149.5459211,
              61.3501875
            ],
            [
              -149.545842,
              61.350363
            ],
            [
              -149.5457747,
              61.3504806
            ],
            [
              -149.5458328,
              61.3506139
            ],
            [
              -149.5458619,
              61.3507602
            ],
            [
              -149.5458941,
              61.3508944
            ],
            [
              -149.5459694,
              61.3509409
            ],
            [
              -149.5459414,
              61.3509678
            ],
            [
              -149.5458287,
              61.3510112
            ],
            [
              -149.5457036,
              61.3510044
            ],
            [
              -149.5456072,
              61.3510756
            ],
            [
              -149.5457631,
              61.3511575
            ],
            [
              -149.5459105,
              61.3511968
            ],
            [
              -149.5460328,
              61.3512972
            ],
            [
              -149.5460446,
              61.351381
            ],
            [
              -149.5459787,
              61.3514031
            ],
            [
              -149.5459572,
              61.3515657
            ],
            [
              -149.5458533,
              61.351563
            ],
            [
              -149.5456939,
              61.3516127
            ],
            [
              -149.5455816,
              61.3515893
            ],
            [
              -149.5454584,
              61.3516006
            ],
            [
              -149.5454003,
              61.3516872
            ],
            [
              -149.5452453,
              61.3518355
            ],
            [
              -149.5451059,
              61.3518993
            ],
            [
              -149.5449442,
              61.3520236
            ],
            [
              -149.5448481,
              61.3520627
            ],
            [
              -149.5446877,
              61.3520514
            ],
            [
              -149.5444603,
              61.3520933
            ],
            [
              -149.54404,
              61.3520541
            ],
            [
              -149.5438898,
              61.3521182
            ],
            [
              -149.5438576,
              61.3522099
            ],
            [
              -149.543622,
              61.3522755
            ],
            [
              -149.543556,
              61.3522936
            ],
            [
              -149.5434847,
              61.3522728
            ],
            [
              -149.5434365,
              61.352279
            ],
            [
              -149.5434422,
              61.3523142
            ],
            [
              -149.5431918,
              61.352422
            ],
            [
              -149.5430931,
              61.3523876
            ],
            [
              -149.5430423,
              61.3524053
            ],
            [
              -149.5430772,
              61.3524542
            ],
            [
              -149.5430295,
              61.3524657
            ],
            [
              -149.5429223,
              61.3524462
            ],
            [
              -149.5428457,
              61.3524719
            ],
            [
              -149.5428946,
              61.3525191
            ],
            [
              -149.5428309,
              61.3525552
            ],
            [
              -149.5426534,
              61.3526136
            ],
            [
              -149.5425934,
              61.3526888
            ],
            [
              -149.5423609,
              61.3528646
            ],
            [
              -149.5421396,
              61.3530023
            ],
            [
              -149.542097,
              61.3531562
            ],
            [
              -149.5420038,
              61.3532634
            ],
            [
              -149.5418192,
              61.3532481
            ],
            [
              -149.5415875,
              61.353368
            ],
            [
              -149.5414344,
              61.353474
            ],
            [
              -149.5413918,
              61.3536162
            ],
            [
              -149.5412794,
              61.3536794
            ],
            [
              -149.5412664,
              61.3537538
            ],
            [
              -149.541302,
              61.3537767
            ],
            [
              -149.5412901,
              61.3538176
            ],
            [
              -149.5411683,
              61.3538546
            ],
            [
              -149.5411552,
              61.353874
            ],
            [
              -149.5412254,
              61.3538993
            ],
            [
              -149.5411652,
              61.3539848
            ],
            [
              -149.5411607,
              61.354047
            ],
            [
              -149.5412044,
              61.3540846
            ],
            [
              -149.5412186,
              61.3541985
            ],
            [
              -149.5411107,
              61.3542903
            ],
            [
              -149.5411217,
              61.3543978
            ],
            [
              -149.5412123,
              61.3545377
            ],
            [
              -149.541292,
              61.3545944
            ],
            [
              -149.5412093,
              61.3546778
            ],
            [
              -149.5412168,
              61.3547062
            ],
            [
              -149.5412924,
              61.354725
            ],
            [
              -149.5413225,
              61.354762
            ],
            [
              -149.5411201,
              61.3548181
            ],
            [
              -149.5410556,
              61.3549322
            ],
            [
              -149.5409653,
              61.3551542
            ],
            [
              -149.5407754,
              61.355446
            ],
            [
              -149.5408802,
              61.3554799
            ],
            [
              -149.5410722,
              61.3557366
            ],
            [
              -149.5407544,
              61.3557829
            ],
            [
              -149.5407526,
              61.3558337
            ],
            [
              -149.5408121,
              61.3558563
            ],
            [
              -149.5408275,
              61.3559002
            ],
            [
              -149.540747,
              61.3559189
            ],
            [
              -149.5407614,
              61.3559761
            ],
            [
              -149.5407935,
              61.3559844
            ],
            [
              -149.5407999,
              61.3560199
            ],
            [
              -149.5407505,
              61.3560399
            ],
            [
              -149.5407047,
              61.356088
            ],
            [
              -149.5407173,
              61.3561292
            ],
            [
              -149.5407653,
              61.3561822
            ],
            [
              -149.5408477,
              61.3563033
            ],
            [
              -149.540957,
              61.3563615
            ],
            [
              -149.5409599,
              61.3563925
            ],
            [
              -149.5408329,
              61.3564048
            ],
            [
              -149.5408145,
              61.356432
            ],
            [
              -149.5409072,
              61.3564625
            ],
            [
              -149.5407303,
              61.3567216
            ],
            [
              -149.5403606,
              61.3569495
            ],
            [
              -149.5399686,
              61.357064
            ],
            [
              -149.5397356,
              61.3571415
            ],
            [
              -149.5395399,
              61.3572116
            ],
            [
              -149.5395876,
              61.3572849
            ],
            [
              -149.5397584,
              61.3573242
            ],
            [
              -149.5399172,
              61.3573389
            ],
            [
              -149.5401578,
              61.3572948
            ],
            [
              -149.5403942,
              61.3571911
            ],
            [
              -149.5404447,
              61.3571741
            ],
            [
              -149.5405587,
              61.357184
            ],
            [
              -149.5406378,
              61.3571081
            ],
            [
              -149.5407339,
              61.3570926
            ],
            [
              -149.5407876,
              61.3571233
            ],
            [
              -149.5409737,
              61.3571502
            ],
            [
              -149.5411615,
              61.3570498
            ],
            [
              -149.5413449,
              61.3570294
            ],
            [
              -149.5414145,
              61.3570003
            ],
            [
              -149.54157,
              61.3570227
            ],
            [
              -149.5416892,
              61.3570213
            ],
            [
              -149.5416839,
              61.35721
            ],
            [
              -149.5416556,
              61.3572975
            ],
            [
              -149.5415353,
              61.3573197
            ],
            [
              -149.5415683,
              61.3573544
            ],
            [
              -149.5416202,
              61.3573786
            ],
            [
              -149.5416146,
              61.3574183
            ],
            [
              -149.5415399,
              61.3574184
            ],
            [
              -149.5415993,
              61.3574555
            ],
            [
              -149.541722,
              61.3574779
            ],
            [
              -149.5417517,
              61.3574239
            ],
            [
              -149.541825,
              61.3574226
            ],
            [
              -149.5418425,
              61.3574063
            ],
            [
              -149.5419317,
              61.3573871
            ],
            [
              -149.5419382,
              61.3574133
            ],
            [
              -149.5419789,
              61.3574104
            ],
            [
              -149.5419936,
              61.3573661
            ],
            [
              -149.5419788,
              61.3572899
            ],
            [
              -149.5420483,
              61.3571788
            ],
            [
              -149.5421502,
              61.3570438
            ],
            [
              -149.5422728,
              61.3570192
            ],
            [
              -149.5424241,
              61.3570271
            ],
            [
              -149.5425288,
              61.357031
            ],
            [
              -149.5426451,
              61.3570036
            ],
            [
              -149.5428141,
              61.3569712
            ],
            [
              -149.5428319,
              61.3568929
            ],
            [
              -149.5427759,
              61.3568593
            ],
            [
              -149.5428109,
              61.3568153
            ],
            [
              -149.5428718,
              61.356792
            ],
            [
              -149.5433958,
              61.3568805
            ],
            [
              -149.5433609,
              61.3569132
            ],
            [
              -149.5435869,
              61.3569819
            ],
            [
              -149.5438311,
              61.3569987
            ],
            [
              -149.5438771,
              61.3570437
            ],
            [
              -149.5439404,
              61.3570318
            ],
            [
              -149.5439184,
              61.3569964
            ],
            [
              -149.5439625,
              61.3569402
            ],
            [
              -149.544041,
              61.3568735
            ],
            [
              -149.5445017,
              61.3568381
            ],
            [
              -149.5446529,
              61.3567259
            ],
            [
              -149.5447212,
              61.3567198
            ],
            [
              -149.5447851,
              61.3567051
            ],
            [
              -149.5447646,
              61.3566729
            ],
            [
              -149.5451887,
              61.3565122
            ],
            [
              -149.5452666,
              61.3565141
            ],
            [
              -149.5453012,
              61.3564995
            ],
            [
              -149.5452807,
              61.3564678
            ],
            [
              -149.5455409,
              61.3563952
            ],
            [
              -149.5457905,
              61.3563546
            ],
            [
              -149.5459076,
              61.3562865
            ],
            [
              -149.5459767,
              61.3562988
            ],
            [
              -149.5460568,
              61.3562887
            ],
            [
              -149.5461562,
              61.3562354
            ],
            [
              -149.5461407,
              61.356172
            ],
            [
              -149.546256,
              61.3561423
            ],
            [
              -149.5463069,
              61.3560953
            ],
            [
              -149.5463621,
              61.3560755
            ],
            [
              -149.5463281,
              61.3560061
            ],
            [
              -149.5463593,
              61.3559903
            ],
            [
              -149.5463998,
              61.3559632
            ],
            [
              -149.5463943,
              61.3558901
            ],
            [
              -149.5464877,
              61.35585
            ],
            [
              -149.5465169,
              61.3556642
            ],
            [
              -149.5463881,
              61.3555945
            ],
            [
              -149.5464069,
              61.3555248
            ],
            [
              -149.546359,
              61.3554452
            ],
            [
              -149.5462716,
              61.355364
            ],
            [
              -149.5462739,
              61.3552945
            ],
            [
              -149.5463144,
              61.3552
            ],
            [
              -149.5464679,
              61.3550798
            ],
            [
              -149.5465683,
              61.3550023
            ],
            [
              -149.5466626,
              61.3549466
            ],
            [
              -149.5467395,
              61.3549247
            ],
            [
              -149.5467913,
              61.3548467
            ],
            [
              -149.5469466,
              61.3547737
            ],
            [
              -149.5469285,
              61.3547308
            ],
            [
              -149.5470066,
              61.3546978
            ],
            [
              -149.546992,
              61.3546744
            ],
            [
              -149.5470383,
              61.3546412
            ],
            [
              -149.5470845,
              61.3546314
            ],
            [
              -149.5471076,
              61.3545912
            ],
            [
              -149.5471479,
              61.3545592
            ],
            [
              -149.5472233,
              61.3545384
            ],
            [
              -149.5472898,
              61.3544986
            ],
            [
              -149.547324,
              61.3544769
            ],
            [
              -149.5474331,
              61.354291
            ],
            [
              -149.5475489,
              61.3542417
            ],
            [
              -149.5476351,
              61.3541777
            ],
            [
              -149.547636,
              61.354004
            ],
            [
              -149.5475813,
              61.3538477
            ],
            [
              -149.547722,
              61.3536772
            ],
            [
              -149.5477771,
              61.353581
            ],
            [
              -149.5477462,
              61.3534189
            ],
            [
              -149.5476023,
              61.3534027
            ],
            [
              -149.5475715,
              61.3532697
            ],
            [
              -149.5475808,
              61.3531771
            ],
            [
              -149.5476822,
              61.3531615
            ],
            [
              -149.5477147,
              61.3530885
            ],
            [
              -149.5475652,
              61.3531002
            ],
            [
              -149.5475575,
              61.3529953
            ],
            [
              -149.5475828,
              61.3529963
            ],
            [
              -149.5476347,
              61.3527597
            ],
            [
              -149.5477057,
              61.3527462
            ],
            [
              -149.5478102,
              61.3522848
            ],
            [
              -149.547961,
              61.352186
            ],
            [
              -149.5479569,
              61.3521003
            ],
            [
              -149.5480593,
              61.3520152
            ],
            [
              -149.5481642,
              61.3520071
            ],
            [
              -149.5481764,
              61.3520357
            ],
            [
              -149.5483032,
              61.3520164
            ],
            [
              -149.5482957,
              61.3519834
            ],
            [
              -149.5486408,
              61.351699
            ],
            [
              -149.5488644,
              61.3515292
            ],
            [
              -149.5493107,
              61.3512982
            ],
            [
              -149.5494648,
              61.3511868
            ],
            [
              -149.5495815,
              61.3510768
            ],
            [
              -149.5497002,
              61.3509878
            ],
            [
              -149.5496953,
              61.3509451
            ],
            [
              -149.5499726,
              61.3507354
            ],
            [
              -149.5500151,
              61.3506643
            ],
            [
              -149.5501477,
              61.3505803
            ],
            [
              -149.5502615,
              61.3504297
            ],
            [
              -149.550343,
              61.3504075
            ],
            [
              -149.550355,
              61.3503573
            ],
            [
              -149.5503753,
              61.3502096
            ],
            [
              -149.5505178,
              61.3501637
            ],
            [
              -149.5505468,
              61.3501036
            ],
            [
              -149.5506725,
              61.3501075
            ],
            [
              -149.5507761,
              61.3500329
            ],
            [
              -149.5508244,
              61.3499288
            ],
            [
              -149.5509109,
              61.349919
            ],
            [
              -149.5509253,
              61.3498806
            ],
            [
              -149.5509881,
              61.3498591
            ],
            [
              -149.5510004,
              61.3497808
            ],
            [
              -149.5511023,
              61.3497614
            ],
            [
              -149.5514486,
              61.3495054
            ],
            [
              -149.5515027,
              61.3494943
            ],
            [
              -149.551549,
              61.3493995
            ],
            [
              -149.5516242,
              61.3492847
            ],
            [
              -149.5517441,
              61.3492452
            ],
            [
              -149.5518194,
              61.3491621
            ],
            [
              -149.5519347,
              61.3491233
            ],
            [
              -149.5520653,
              61.3489898
            ],
            [
              -149.552129,
              61.3489343
            ],
            [
              -149.5521772,
              61.3488681
            ]
          ]
        ]
      }
    }
  ]
}