{
  "type": "FeatureCollection",
  "features": [
    {
      "type": "Feature",
      "properties": {
        "depth_ft": 0,
        "source": "OpenStreetMap relation 20307481"
      },
      "geometry": {
        "type": "Polygon",
        "coordinates": [
          [
            [
              -149.9772441,
              61.1504368
            ],
            [
              -149.9771582,
              61.15024
            ],
            [
              -149.9769651,
              61.1499941
            ],
            [
              -149.97694,
              61.1499757
            ],
            [
              -149.9766593,
              61.1497689
            ],
            [
              -149.9764609,
              61.1496654
            ],
            [
              -149.9762677,
              61.1495437
            ],
            [
              -149.9758305,
              61.1493831
            ],
            [
              -149.9758171,
              61.1493781
            ],
            [
              -149.9749379,
              61.1492108
            ],
            [
              -149.9742584,
              61.1491795
            ],
            [
              -149.9742346,
              61.1491788
            ],
            [
              -149.9737733,
              61.1492072
            ],
            [
              -149.9731939,
              61.1491011
            ],
            [
              -149.9729909,
              61.1491011
            ],
            [
              -149.9723946,
              61.1491011
            ],
            [
              -149.971944,
              61.149039
            ],
            [
              -149.9714827,
              61.1490002
            ],
            [
              -149.9709672,
              61.1489032
            ],
            [
              -149.9709462,
              61.1488992
            ],
            [
              -149.9699753,
              61.1488837
            ],
            [
              -149.9696641,
              61.1489096
            ],
            [
              -149.9694496,
              61.1490157
            ],
            [
              -149.9694397,
              61.1490289
            ],
            [
              -149.9693423,
              61.1491684
            ],
            [
              -149.9692123,
              61.1492425
            ],
            [
              -149.9690959,
              61.149309
            ],
            [
              -149.9690794,
              61.1493186
            ],
            [
              -149.9689476,
              61.1494278
            ],
            [
              -149.9688648,
              61.1494972
            ],
            [
              -149.9688426,
              61.1495176
            ],
            [
              -149.9687254,
              61.1496292
            ],
            [
              -149.968455,
              61.1497029
            ],
            [
              -149.9683659,
              61.1497275
            ],
            [
              -149.9682668,
              61.1497611
            ],
            [
              -149.9680173,
              61.1498466
            ],
            [
              -149.9678127,
              61.1499197
            ],
            [
              -149.9675613,
              61.1500097
            ],
            [
              -149.9669927,
              61.1503384
            ],
            [
              -149.9664401,
              61.1504005
            ],
            [
              -149.96607,
              61.1504109
            ],
            [
              -149.9659466,
              61.1503255
            ],
            [
              -149.965963,
              61.1503092
            ],
            [
              -149.9660592,
              61.1502167
            ],
            [
              -149.9661504,
              61.1498233
            ],
            [
              -149.9661504,
              61.148775
            ],
            [
              -149.9661349,
              61.1482389
            ],
            [
              -149.966129,
              61.1480295
            ],
            [
              -149.96607,
              61.1476852
            ],
            [
              -149.9658661,
              61.1476205
            ],
            [
              -149.9656784,
              61.1476489
            ],
            [
              -149.9656784,
              61.1479725
            ],
            [
              -149.9655818,
              61.149215
            ],
            [
              -149.9655496,
              61.1497586
            ],
            [
              -149.9655282,
              61.150165
            ],
            [
              -149.9654155,
              61.1502711
            ],
            [
              -149.9652975,
              61.1503332
            ],
            [
              -149.9649434,
              61.1502607
            ],
            [
              -149.9645981,
              61.1501251
            ],
            [
              -149.964727,
              61.1500333
            ],
            [
              -149.964808,
              61.1500035
            ],
            [
              -149.9647766,
              61.1497356
            ],
            [
              -149.9647754,
              61.1493043
            ],
            [
              -149.9647788,
              61.148267
            ],
            [
              -149.9647806,
              61.1477398
            ],
            [
              -149.964783,
              61.1470278
            ],
            [
              -149.96468,
              61.1468971
            ],
            [
              -149.964456,
              61.1468723
            ],
            [
              -149.9641912,
              61.1469361
            ],
            [
              -149.9642032,
              61.147139
            ],
            [
              -149.9642514,
              61.1479647
            ],
            [
              -149.9642514,
              61.1490002
            ],
            [
              -149.9642514,
              61.1497767
            ],
            [
              -149.9642514,
              61.1499527
            ],
            [
              -149.9643641,
              61.1501029
            ],
            [
              -149.9642577,
              61.1501082
            ],
            [
              -149.9638503,
              61.1501283
            ],
            [
              -149.9637901,
              61.1501313
            ],
            [
              -149.9632966,
              61.1501986
            ],
            [
              -149.9629801,
              61.1502633
            ],
            [
              -149.9626904,
              61.1502892
            ],
            [
              -149.9624222,
              61.1503902
            ],
            [
              -149.9621915,
              61.1504808
            ],
            [
              -149.9620949,
              61.150561
            ],
            [
              -149.9618374,
              61.1506594
            ],
            [
              -149.9614137,
              61.1506956
            ],
            [
              -149.9610864,
              61.1507551
            ],
            [
              -149.9606412,
              61.1509467
            ],
            [
              -149.9600457,
              61.1510398
            ],
            [
              -149.959858,
              61.1511822
            ],
            [
              -149.9597614,
              61.1513246
            ],
            [
              -149.9596541,
              61.1513712
            ],
            [
              -149.9594878,
              61.1514747
            ],
            [
              -149.9592894,
              61.1515368
            ],
            [
              -149.9590694,
              61.1515549
            ],
            [
              -149.9588776,
              61.1515314
            ],
            [
              -149.9587763,
              61.1515436
            ],
            [
              -149.9585826,
              61.1514813
            ],
            [
              -149.9584954,
              61.1514333
            ],
            [
              -149.9572455,
              61.1510657
            ],
            [
              -149.9568593,
              61.1509622
            ],
            [
              -149.9565481,
              61.1507603
            ],
            [
              -149.9559044,
              61.1500459
            ],
            [
              -149.9555933,
              61.1497379
            ],
            [
              -149.954971,
              61.1490235
            ],
            [
              -149.9548154,
              61.1488449
            ],
            [
              -149.9546813,
              61.1486352
            ],
            [
              -149.9545529,
              61.1485665
            ],
            [
              -149.9545418,
              61.1485601
            ],
            [
              -149.9542683,
              61.1485446
            ],
            [
              -149.9542253,
              61.1486274
            ],
            [
              -149.9542951,
              61.1488526
            ],
            [
              -149.9546223,
              61.1492694
            ],
            [
              -149.9548154,
              61.1495153
            ],
            [
              -149.9551856,
              61.1497612
            ],
            [
              -149.9550783,
              61.1498518
            ],
            [
              -149.9551534,
              61.149976
            ],
            [
              -149.9554538,
              61.1500304
            ],
            [
              -149.9555128,
              61.1501494
            ],
            [
              -149.9557274,
              61.1504316
            ],
            [
              -149.9562316,
              61.1509907
            ],
            [
              -149.9563765,
              61.1510994
            ],
            [
              -149.9569022,
              61.1512003
            ],
            [
              -149.9578571,
              61.1514954
            ],
            [
              -149.9580663,
              61.1516015
            ],
            [
              -149.9580287,
              61.1516792
            ],
            [
              -149.957841,
              61.1517283
            ],
            [
              -149.9575888,
              61.1518112
            ],
            [
              -149.9574815,
              61.1518655
            ],
            [
              -149.9573674,
              61.1519305
            ],
            [
              -149.9573099,
              61.1519639
            ],
            [
              -149.957208,
              61.1520829
            ],
            [
              -149.9572026,
              61.1521942
            ],
            [
              -149.9570899,
              61.1522486
            ],
            [
              -149.9570738,
              61.1523702
            ],
            [
              -149.9571007,
              61.1524634
            ],
            [
              -149.956963,
              61.1527216
            ],
            [
              -149.9571917,
              61.1532409
            ],
            [
              -149.957237,
              61.1533735
            ],
            [
              -149.957327,
              61.1535451
            ],
            [
              -149.9576711,
              61.1536069
            ],
            [
              -149.9579912,
              61.1536643
            ],
            [
              -149.9582057,
              61.1537394
            ],
            [
              -149.9586617,
              61.153773
            ],
            [
              -149.9590986,
              61.153807
            ],
            [
              -149.9591284,
              61.1538093
            ],
            [
              -149.9595737,
              61.1538377
            ],
            [
              -149.9599224,
              61.1537963
            ],
            [
              -149.9602979,
              61.1537937
            ],
            [
              -149.9608933,
              61.1538015
            ],
            [
              -149.9611776,
              61.1537756
            ],
            [
              -149.9614619,
              61.1538403
            ],
            [
              -149.9616712,
              61.1538403
            ],
            [
              -149.9618911,
              61.1538248
            ],
            [
              -149.9621218,
              61.153861
            ],
            [
              -149.962449,
              61.1538015
            ],
            [
              -149.9626743,
              61.1536643
            ],
            [
              -149.9627226,
              61.1535116
            ],
            [
              -149.9629962,
              61.1533796
            ],
            [
              -149.9631356,
              61.153258
            ],
            [
              -149.9631393,
              61.1531575
            ],
            [
              -149.963141,
              61.153113
            ],
            [
              -149.9634682,
              61.152862
            ],
            [
              -149.9637686,
              61.152805
            ],
            [
              -149.9640047,
              61.152717
            ],
            [
              -149.9644124,
              61.152673
            ],
            [
              -149.9647557,
              61.1526886
            ],
            [
              -149.9648844,
              61.15273
            ],
            [
              -149.9651902,
              61.1526963
            ],
            [
              -149.9655657,
              61.1526705
            ],
            [
              -149.9658983,
              61.1526032
            ],
            [
              -149.9665259,
              61.1525333
            ],
            [
              -149.9670034,
              61.1524246
            ],
            [
              -149.9673687,
              61.1523791
            ],
            [
              -149.9678349,
              61.1523211
            ],
            [
              -149.9682211,
              61.1523081
            ],
            [
              -149.968661,
              61.1522641
            ],
            [
              -149.9690848,
              61.1521554
            ],
            [
              -149.9693691,
              61.1520467
            ],
            [
              -149.9695729,
              61.151982
            ],
            [
              -149.9697178,
              61.1520105
            ],
            [
              -149.9700879,
              61.1519483
            ],
            [
              -149.9704634,
              61.1518578
            ],
            [
              -149.9708658,
              61.1517672
            ],
            [
              -149.9710589,
              61.1516895
            ],
            [
              -149.9712305,
              61.1516274
            ],
            [
              -149.9713807,
              61.1515161
            ],
            [
              -149.9717402,
              61.1513867
            ],
            [
              -149.9719977,
              61.1512573
            ],
            [
              -149.9721532,
              61.1511667
            ],
            [
              -149.9721586,
              61.1510502
            ],
            [
              -149.9722873,
              61.1510217
            ],
            [
              -149.9723356,
              61.1509156
            ],
            [
              -149.9723195,
              61.1507914
            ],
            [
              -149.9725448,
              61.1507059
            ],
            [
              -149.9726038,
              61.1505998
            ],
            [
              -149.972754,
              61.1504652
            ],
            [
              -149.9730491,
              61.1503953
            ],
            [
              -149.9733817,
              61.1502866
            ],
            [
              -149.9738055,
              61.1503617
            ],
            [
              -149.9740898,
              61.1505248
            ],
            [
              -149.9743097,
              61.1507732
            ],
            [
              -149.9744189,
              61.1509022
            ],
            [
              -149.9744707,
              61.1509622
            ],
            [
              -149.9747764,
              61.1510787
            ],
            [
              -149.9751519,
              61.1511486
            ],
            [
              -149.9754362,
              61.151133
            ],
            [
              -149.9759459,
              61.1509881
            ],
            [
              -149.9762892,
              61.1508871
            ],
            [
              -149.9767666,
              61.1508302
            ],
            [
              -149.977067,
              61.15075
            ],
            [
              -149.9772065,
              61.1506024
            ],
            [
              -149.9772441,
              61.1504368
            ]
          ]
        ]
      }
    }
  ]
}