{
  "type": "FeatureCollection",
  "features": [
    {
      "type": "Feature",
      "properties": {
        "depth_ft": 0,
        "source": "OpenStreetMap way 183249120"
      },
      "geometry": {
        "type": "Polygon",
        "coordinates": [
          [
            [
              -149.5659419,
              61.4031485
            ],
            [
              -149.5658561,
              61.402635
            ],
            [
              -149.5655986,
              61.402183
            ],
            [
              -149.5649548,
              61.4018133
            ],
            [
              -149.5648325,
              61.401805
            ],
            [
              -149.5641244,
              61.4017568
            ],
            [
              -149.5634957,
              61.4015668
            ],
            [
              -149.5625516,
              61.4015462
            ],
            [
              -149.5616074,
              61.4014641
            ],
            [
              -149.5604916,
              61.4013203
            ],
            [
              -149.5596612,
              61.4011816
            ],
            [
              -149.5589896,
              61.4012792
            ],
            [
              -149.5587092,
              61.4013533
            ],
            [
              -149.5581163,
              61.4015103
            ],
            [
              -149.5574447,
              61.4016079
            ],
            [
              -149.5570005,
              61.40188
            ],
            [
              -149.5563718,
              61.4023063
            ],
            [
              -149.5560134,
              61.4027633
            ],
            [
              -149.5555993,
              61.4030252
            ],
            [
              -149.5552131,
              61.4033128
            ],
            [
              -149.5550323,
              61.4034498
            ],
            [
              -149.5548547,
              61.403585
            ],
            [
              -149.5546401,
              61.404078
            ],
            [
              -149.5545264,
              61.4045658
            ],
            [
              -149.5543397,
              61.4050228
            ],
            [
              -149.5542159,
              61.4052397
            ],
            [
              -149.5540973,
              61.405449
            ],
            [
              -149.5536681,
              61.4059625
            ],
            [
              -149.5535823,
              61.4063733
            ],
            [
              -149.5535673,
              61.4068508
            ],
            [
              -149.5537533,
              61.4071246
            ],
            [
              -149.5539964,
              61.407241
            ],
            [
              -149.5545645,
              61.407612
            ],
            [
              -149.554875,
              61.4077445
            ],
            [
              -149.5554984,
              61.408042
            ],
            [
              -149.5561329,
              61.4083123
            ],
            [
              -149.5568438,
              61.4083244
            ],
            [
              -149.5574726,
              61.4082885
            ],
            [
              -149.5580455,
              61.4082012
            ],
            [
              -149.5586313,
              61.4080831
            ],
            [
              -149.5593329,
              61.4079137
            ],
            [
              -149.5601912,
              61.4076878
            ],
            [
              -149.5609208,
              61.4073797
            ],
            [
              -149.5616783,
              61.4070357
            ],
            [
              -149.562322,
              61.4067276
            ],
            [
              -149.5625451,
              61.4066018
            ],
            [
              -149.5630237,
              61.4063322
            ],
            [
              -149.5634807,
              61.405906
            ],
            [
              -149.5640965,
              61.405449
            ],
            [
              -149.5646115,
              61.4050588
            ],
            [
              -149.5650257,
              61.4047147
            ],
            [
              -149.5654269,
              61.404422
            ],
            [
              -149.5656415,
              61.4041139
            ],
            [
              -149.565899,
              61.4036415
            ],
            [
              -149.5659419,
              61.4031485
            ]
          ]
        ]
      }
    }
  ]
}