{
  "type": "FeatureCollection",
  "features": [
    {
      "type": "Feature",
      "properties": {
        "depth_ft": 0,
        "source": "OpenStreetMap way 59020753"
      },
      "geometry": {
        "type": "Polygon",
        "coordinates": [
          [
            [
              -149.7628698,
              61.2009919
            ],
            [
              -149.7628642,
              61.2008961
            ],
            [
              -149.7628382,
              61.2007565
            ],
            [
              -149.7628143,
              61.2006327
            ],
            [
              -149.7628042,
              61.2005116
            ],
            [
              -149.762768,
              61.2004169
            ],
            [
              -149.7625878,
              61.2003311
            ],
            [
              -149.7623593,
              61.2003067
            ],
            [
              -149.7619545,
              61.2002681
            ],
            [
              -149.7618466,
              61.200206
            ],
            [
              -149.7618839,
              61.2001374
            ],
            [
              -149.761927,
              61.2001007
            ],
            [
              -149.7620151,
              61.2000982
            ],
            [
              -149.7621236,
              61.2000912
            ],
            [
              -149.7622002,
              61.2000681
            ],
            [
              -149.7622613,
              61.2000312
            ],
            [
              -149.7622854,
              61.199953
            ],
            [
              -149.7622444,
              61.1998678
            ],
            [
              -149.7621967,
              61.1998134
            ],
            [
              -149.7620735,
              61.1997431
            ],
            [
              -149.7619561,
              61.199682
            ],
            [
              -149.7617557,
              61.1996364
            ],
            [
              -149.7611492,
              61.1995396
            ],
            [
              -149.760993,
              61.1995209
            ],
            [
              -149.7608726,
              61.1995099
            ],
            [
              -149.7606945,
              61.1995073
            ],
            [
              -149.7604529,
              61.1995429
            ],
            [
              -149.7603669,
              61.1995869
            ],
            [
              -149.76031,
              61.1996453
            ],
            [
              -149.7602688,
              61.199716
            ],
            [
              -149.7602528,
              61.1998206
            ],
            [
              -149.7602036,
              61.1999587
            ],
            [
              -149.7600753,
              61.2001112
            ],
            [
              -149.7600671,
              61.2002355
            ],
            [
              -149.759782,
              61.2004397
            ],
            [
              -149.7594875,
              61.200543
            ],
            [
              -149.7592296,
              61.2006668
            ],
            [
              -149.7588194,
              61.2014727
            ],
            [
              -149.7589731,
              61.2015584
            ],
            [
              -149.7591346,
              61.2016115
            ],
            [
              -149.7591429,
              61.2016607
            ],
            [
              -149.7590897,
              61.2016941
            ],
            [
              -149.7589734,
              61.2017157
            ],
            [
              -149.7589166,
              61.2017319
            ],
            [
              -149.7589043,
              61.2017947
            ],
            [
              -149.7588839,
              61.2018606
            ],
            [
              -149.7588033,
              61.201906
            ],
            [
              -149.7587376,
              61.201928
            ],
            [
              -149.7586012,
              61.2019234
            ],
            [
              -149.7584431,
              61.2019063
            ],
            [
              -149.7583245,
              61.2021139
            ],
            [
              -149.7582164,
              61.2025221
            ],
            [
              -149.7581595,
              61.2036788
            ],
            [
              -149.7582055,
              61.2038406
            ],
            [
              -149.7583687,
              61.2040902
            ],
            [
              -149.7586339,
              61.2044508
            ],
            [
              -149.7584924,
              61.2045833
            ],
            [
              -149.7582925,
              61.2045888
            ],
            [
              -149.7575776,
              61.2045156
            ],
            [
              -149.757459,
              61.2045395
            ],
            [
              -149.7573808,
              61.2046457
            ],
            [
              -149.757296,
              61.2049575
            ],
            [
              -149.7573154,
              61.2050664
            ],
            [
              -149.7574405,
              61.2051269
            ],
            [
              -149.7578829,
              61.2051402
            ],
            [
              -149.7580645,
              61.2051109
            ],
            [
              -149.7582607,
              61.2050396
            ],
            [
              -149.7583981,
              61.2049739
            ],
            [
              -149.7585171,
              61.2049651
            ],
            [
              -149.7585668,
              61.2049295
            ],
            [
              -149.7587632,
              61.2049045
            ],
            [
              -149.7587683,
              61.2048706
            ],
            [
              -149.7588407,
              61.2048553
            ],
            [
              -149.7589761,
              61.2048579
            ],
            [
              -149.7593459,
              61.2049036
            ],
            [
              -149.7594194,
              61.2049008
            ],
            [
              -149.759465,
              61.2048888
            ],
            [
              -149.7594476,
              61.2047361
            ],
            [
              -149.7594215,
              61.2045028
            ],
            [
              -149.7594193,
              61.2044358
            ],
            [
              -149.7594438,
              61.2043554
            ],
            [
              -149.7594826,
              61.2043149
            ],
            [
              -149.7595201,
              61.2042898
            ],
            [
              -149.7595937,
              61.2042931
            ],
            [
              -149.7596083,
              61.2043092
            ],
            [
              -149.7596529,
              61.2044033
            ],
            [
              -149.7596903,
              61.2045125
            ],
            [
              -149.7597371,
              61.204697
            ],
            [
              -149.7597402,
              61.204702
            ],
            [
              -149.7598594,
              61.2048895
            ],
            [
              -149.7599748,
              61.2050237
            ],
            [
              -149.7601736,
              61.2051284
            ],
            [
              -149.7603327,
              61.2051983
            ],
            [
              -149.7605565,
              61.2052049
            ],
            [
              -149.7606203,
              61.2051705
            ],
            [
              -149.760706,
              61.2051127
            ],
            [
              -149.7607979,
              61.2050351
            ],
            [
              -149.7608503,
              61.204958
            ],
            [
              -149.7608513,
              61.2049504
            ],
            [
              -149.760865,
              61.2048733
            ],
            [
              -149.7608627,
              61.2048115
            ],
            [
              -149.7608846,
              61.2047705
            ],
            [
              -149.7609211,
              61.2047247
            ],
            [
              -149.7609911,
              61.2047075
            ],
            [
              -149.7610775,
              61.2047079
            ],
            [
              -149.7611821,
              61.2047215
            ],
            [
              -149.761233,
              61.2046553
            ],
            [
              -149.7612814,
              61.2045364
            ],
            [
              -149.7613189,
              61.2041525
            ],
            [
              -149.7613321,
              61.2040758
            ],
            [
              -149.7613508,
              61.2039784
            ],
            [
              -149.7613219,
              61.2036679
            ],
            [
              -149.7612925,
              61.2030352
            ],
            [
              -149.7612278,
              61.2028705
            ],
            [
              -149.7611451,
              61.2027181
            ],
            [
              -149.7611258,
              61.2026142
            ],
            [
              -149.7611816,
              61.202517
            ],
            [
              -149.7612295,
              61.2024798
            ],
            [
              -149.7612904,
              61.2024491
            ],
            [
              -149.761372,
              61.2024284
            ],
            [
              -149.7619345,
              61.2023895
            ],
            [
              -149.7619944,
              61.2023815
            ],
            [
              -149.7620379,
              61.2023649
            ],
            [
              -149.7620698,
              61.2023408
            ],
            [
              -149.762123,
              61.202162
            ],
            [
              -149.7621722,
              61.2019859
            ],
            [
              -149.7622348,
              61.2018773
            ],
            [
              -149.7623378,
              61.2017192
            ],
            [
              -149.7624512,
              61.2015612
            ],
            [
              -149.7626321,
              61.2013606
            ],
            [
              -149.7627959,
              61.2011573
            ],
            [
              -149.7628495,
              61.2010703
            ],
            [
              -149.7628698,
              61.2009919
            ]
          ]
        ]
      }
    }
  ]
}