{
  "type": "FeatureCollection",
  "features": [
    {
      "type": "Feature",
      "properties": {
        "depth_ft": 0,
        "source": "OpenStreetMap way 182788865"
      },
      "geometry": {
        "type": "Polygon",
        "coordinates": [
          [
            [
              -149.9617298,
              61.1609548
            ],
            [
              -149.9616481,
              61.1608914
            ],
            [
              -149.9616351,
              61.1608858
            ],
            [
              -149.9615477,
              61.1608443
            ],
            [
              -149.9613281,
              61.1608077
            ],
            [
              -149.9610044,
              61.1608389
            ],
            [
              -149.9607903,
              61.1609025
            ],
            [
              -149.9602061,
              61.1609098
            ],
            [
              -149.960093,
              61.1609116
            ],
            [
              -149.9599329,
              61.1608994
            ],
            [
              -149.9598481,
              61.1608472
            ],
            [
              -149.959267,
              61.1608304
            ],
            [
              -149.958844,
              61.160878
            ],
            [
              -149.9586361,
              61.1609392
            ],
            [
              -149.9583572,
              61.1610013
            ],
            [
              -149.9582185,
              61.1611533
            ],
            [
              -149.9581271,
              61.1612249
            ],
            [
              -149.9580402,
              61.1614055
            ],
            [
              -149.9578686,
              61.1615357
            ],
            [
              -149.957701,
              61.1616324
            ],
            [
              -149.9573856,
              61.1617262
            ],
            [
              -149.9572261,
              61.1616812
            ],
            [
              -149.9569585,
              61.1617299
            ],
            [
              -149.9567793,
              61.1617646
            ],
            [
              -149.956397,
              61.1617044
            ],
            [
              -149.9560562,
              61.1616979
            ],
            [
              -149.9558896,
              61.1616947
            ],
            [
              -149.9555248,
              61.1618086
            ],
            [
              -149.9553317,
              61.1619224
            ],
            [
              -149.9551691,
              61.1620051
            ],
            [
              -149.9549454,
              61.162119
            ],
            [
              -149.9545278,
              61.1622455
            ],
            [
              -149.9541515,
              61.162326
            ],
            [
              -149.9540871,
              61.1623778
            ],
            [
              -149.9539705,
              61.1624083
            ],
            [
              -149.9536794,
              61.1625434
            ],
            [
              -149.9532288,
              61.162709
            ],
            [
              -149.9530931,
              61.162806
            ],
            [
              -149.9530373,
              61.1629363
            ],
            [
              -149.9531554,
              61.1630488
            ],
            [
              -149.9534876,
              61.1631631
            ],
            [
              -149.9536813,
              61.1631746
            ],
            [
              -149.9539049,
              61.1632564
            ],
            [
              -149.9541501,
              61.1633735
            ],
            [
              -149.9542389,
              61.1634458
            ],
            [
              -149.9542535,
              61.1635108
            ],
            [
              -149.9541376,
              61.1635241
            ],
            [
              -149.9541357,
              61.1635642
            ],
            [
              -149.9543299,
              61.1636031
            ],
            [
              -149.95435,
              61.1636544
            ],
            [
              -149.9544182,
              61.1636996
            ],
            [
              -149.9545715,
              61.1637687
            ],
            [
              -149.9548329,
              61.1638341
            ],
            [
              -149.9549611,
              61.1638745
            ],
            [
              -149.9549907,
              61.1638838
            ],
            [
              -149.9550173,
              61.1638922
            ],
            [
              -149.9550443,
              61.1639271
            ],
            [
              -149.9551358,
              61.1639941
            ],
            [
              -149.9551783,
              61.1640285
            ],
            [
              -149.9553229,
              61.164061
            ],
            [
              -149.955428,
              61.1640831
            ],
            [
              -149.9556975,
              61.1640707
            ],
            [
              -149.9558725,
              61.1640554
            ],
            [
              -149.9560227,
              61.1640407
            ],
            [
              -149.95609,
              61.1639842
            ],
            [
              -149.9562616,
              61.1639572
            ],
            [
              -149.9564287,
              61.1639482
            ],
            [
              -149.9565432,
              61.163889
            ],
            [
              -149.956694,
              61.1638525
            ],
            [
              -149.9569195,
              61.1637543
            ],
            [
              -149.9570954,
              61.1637286
            ],
            [
              -149.9572568,
              61.1636623
            ],
            [
              -149.9572867,
              61.1636701
            ],
            [
              -149.9573267,
              61.1636744
            ],
            [
              -149.9573594,
              61.1636487
            ],
            [
              -149.9573735,
              61.1635907
            ],
            [
              -149.9575068,
              61.1635168
            ],
            [
              -149.9577564,
              61.1634748
            ],
            [
              -149.9582585,
              61.1634055
            ],
            [
              -149.9584603,
              61.1634148
            ],
            [
              -149.9585269,
              61.1634263
            ],
            [
              -149.9585663,
              61.1634209
            ],
            [
              -149.9586167,
              61.163392
            ],
            [
              -149.9587566,
              61.1633736
            ],
            [
              -149.9589157,
              61.1633637
            ],
            [
              -149.9589465,
              61.1633773
            ],
            [
              -149.9590009,
              61.163361
            ],
            [
              -149.9590316,
              61.1633127
            ],
            [
              -149.959167,
              61.1632714
            ],
            [
              -149.959227,
              61.1632762
            ],
            [
              -149.959248,
              61.1632669
            ],
            [
              -149.959237,
              61.1632471
            ],
            [
              -149.9592915,
              61.1631518
            ],
            [
              -149.9593442,
              61.1631258
            ],
            [
              -149.9593916,
              61.163121
            ],
            [
              -149.9593976,
              61.1630955
            ],
            [
              -149.9594296,
              61.1630683
            ],
            [
              -149.9595093,
              61.1630406
            ],
            [
              -149.9596112,
              61.1629857
            ],
            [
              -149.9596248,
              61.1629457
            ],
            [
              -149.959711,
              61.1629039
            ],
            [
              -149.9598516,
              61.1628617
            ],
            [
              -149.9598885,
              61.1628843
            ],
            [
              -149.9601829,
              61.1628781
            ],
            [
              -149.9602323,
              61.16285
            ],
            [
              -149.9602069,
              61.162802
            ],
            [
              -149.9601028,
              61.1627762
            ],
            [
              -149.9600474,
              61.1627668
            ],
            [
              -149.9600754,
              61.1627377
            ],
            [
              -149.9601404,
              61.1626929
            ],
            [
              -149.9601863,
              61.162686
            ],
            [
              -149.9601892,
              61.1626659
            ],
            [
              -149.9602126,
              61.1626476
            ],
            [
              -149.9602517,
              61.1626462
            ],
            [
              -149.960268,
              61.1626147
            ],
            [
              -149.9602918,
              61.1625947
            ],
            [
              -149.9603581,
              61.1625697
            ],
            [
              -149.9604071,
              61.1624786
            ],
            [
              -149.9604532,
              61.1624171
            ],
            [
              -149.9604342,
              61.1623826
            ],
            [
              -149.9604729,
              61.1623574
            ],
            [
              -149.9604761,
              61.1623307
            ],
            [
              -149.9604199,
              61.1623242
            ],
            [
              -149.9603831,
              61.1623136
            ],
            [
              -149.9603865,
              61.1622929
            ],
            [
              -149.9604105,
              61.1622779
            ],
            [
              -149.9603863,
              61.1622542
            ],
            [
              -149.9603776,
              61.1622287
            ],
            [
              -149.9603384,
              61.1622078
            ],
            [
              -149.960341,
              61.1621811
            ],
            [
              -149.9603742,
              61.1621571
            ],
            [
              -149.9603514,
              61.1621375
            ],
            [
              -149.9602944,
              61.1621184
            ],
            [
              -149.9602937,
              61.1620806
            ],
            [
              -149.9603206,
              61.1620541
            ],
            [
              -149.9603308,
              61.1620354
            ],
            [
              -149.9603003,
              61.1619979
            ],
            [
              -149.9603211,
              61.1619406
            ],
            [
              -149.9603321,
              61.1618921
            ],
            [
              -149.9603843,
              61.1618414
            ],
            [
              -149.9604304,
              61.1618338
            ],
            [
              -149.9604676,
              61.1617936
            ],
            [
              -149.9605959,
              61.1617326
            ],
            [
              -149.9607818,
              61.1617018
            ],
            [
              -149.9608273,
              61.1617255
            ],
            [
              -149.9608594,
              61.1617113
            ],
            [
              -149.9608768,
              61.1616922
            ],
            [
              -149.9609117,
              61.1616779
            ],
            [
              -149.9609095,
              61.1616497
            ],
            [
              -149.9608807,
              61.1616245
            ],
            [
              -149.9609123,
              61.1616087
            ],
            [
              -149.9609654,
              61.1616211
            ],
            [
              -149.9610257,
              61.1616057
            ],
            [
              -149.9610219,
              61.1615814
            ],
            [
              -149.960957,
              61.1615346
            ],
            [
              -149.9609538,
              61.1615053
            ],
            [
              -149.9609575,
              61.1614016
            ],
            [
              -149.9609986,
              61.1613764
            ],
            [
              -149.9610171,
              61.1613212
            ],
            [
              -149.960971,
              61.1612935
            ],
            [
              -149.9609691,
              61.1612399
            ],
            [
              -149.9610169,
              61.1612231
            ],
            [
              -149.961006,
              61.1611522
            ],
            [
              -149.9610509,
              61.1611219
            ],
            [
              -149.9611671,
              61.1611197
            ],
            [
              -149.9612641,
              61.1611156
            ],
            [
              -149.9612202,
              61.1611035
            ],
            [
              -149.9610877,
              61.1610888
            ],
            [
              -149.9610833,
              61.1610562
            ],
            [
              -149.9611397,
              61.161026
            ],
            [
              -149.9612227,
              61.1610342
            ],
            [
              -149.9612535,
              61.1610391
            ],
            [
              -149.9612924,
              61.1610213
            ],
            [
              -149.9614728,
              61.1610112
            ],
            [
              -149.9615193,
              61.161043
            ],
            [
              -149.9616156,
              61.1610485
            ],
            [
              -149.96167,
              61.1610133
            ],
            [
              -149.9617298,
              61.1609548
            ]
          ]
        ]
      }
    }
  ]
}