{
  "type": "FeatureCollection",
  "features": [
    {
      "type": "Feature",
      "properties": {
        "depth_ft": 0,
        "source": "OpenStreetMap way 71432763"
      },
      "geometry": {
        "type": "Polygon",
        "coordinates": [
          [
            [
              -149.8233802,
              61.1944523
            ],
            [
              -149.8233588,
              61.1943799
            ],
            [
              -149.8232085,
              61.1942998
            ],
            [
              -149.8226346,
              61.1941266
            ],
            [
              -149.8219559,
              61.1938293
            ],
            [
              -149.8219147,
              61.1938203
            ],
            [
              -149.8218973,
              61.1938166
            ],
            [
              -149.82139,
              61.1937027
            ],
            [
              -149.8211432,
              61.1936122
            ],
            [
              -149.8209179,
              61.1935088
            ],
            [
              -149.8208982,
              61.1934966
            ],
            [
              -149.8207855,
              61.1934233
            ],
            [
              -149.8207624,
              61.193408
            ],
            [
              -149.8206497,
              61.1933615
            ],
            [
              -149.8205022,
              61.193324
            ],
            [
              -149.8202796,
              61.1933072
            ],
            [
              -149.820124,
              61.1933201
            ],
            [
              -149.8195768,
              61.1934209
            ],
            [
              -149.8194266,
              61.1934364
            ],
            [
              -149.8192818,
              61.1934675
            ],
            [
              -149.8191262,
              61.1935217
            ],
            [
              -149.8190743,
              61.1935576
            ],
            [
              -149.8189921,
              61.1936148
            ],
            [
              -149.8189063,
              61.1937208
            ],
            [
              -149.8188365,
              61.1938371
            ],
            [
              -149.8186971,
              61.1940516
            ],
            [
              -149.818563,
              61.1943127
            ],
            [
              -149.818402,
              61.1945066
            ],
            [
              -149.8182089,
              61.194672
            ],
            [
              -149.8179568,
              61.1948426
            ],
            [
              -149.8177368,
              61.1949511
            ],
            [
              -149.8176027,
              61.1949744
            ],
            [
              -149.8174579,
              61.1950494
            ],
            [
              -149.8173238,
              61.1950933
            ],
            [
              -149.8171575,
              61.1951838
            ],
            [
              -149.8169483,
              61.1953233
            ],
            [
              -149.8168303,
              61.1954448
            ],
            [
              -149.8166908,
              61.1955973
            ],
            [
              -149.8165781,
              61.1956929
            ],
            [
              -149.8165674,
              61.1957731
            ],
            [
              -149.8165781,
              61.1959824
            ],
            [
              -149.8165835,
              61.1961117
            ],
            [
              -149.8166318,
              61.1962719
            ],
            [
              -149.8166908,
              61.196365
            ],
            [
              -149.8168034,
              61.1964554
            ],
            [
              -149.8169644,
              61.1965071
            ],
            [
              -149.8171813,
              61.1965142
            ],
            [
              -149.8173345,
              61.1965019
            ],
            [
              -149.8175008,
              61.1964425
            ],
            [
              -149.8175545,
              61.1963624
            ],
            [
              -149.8176456,
              61.1963055
            ],
            [
              -149.8178119,
              61.1962642
            ],
            [
              -149.8180126,
              61.1962388
            ],
            [
              -149.8180372,
              61.1962357
            ],
            [
              -149.8181875,
              61.1962099
            ],
            [
              -149.8184932,
              61.196153
            ],
            [
              -149.8188419,
              61.1961065
            ],
            [
              -149.8190833,
              61.1960962
            ],
            [
              -149.8194427,
              61.1960677
            ],
            [
              -149.819544,
              61.196062
            ],
            [
              -149.8197163,
              61.1960522
            ],
            [
              -149.8201884,
              61.1960109
            ],
            [
              -149.8205263,
              61.1959824
            ],
            [
              -149.8208214,
              61.1959282
            ],
            [
              -149.8211915,
              61.1958765
            ],
            [
              -149.8214644,
              61.1958477
            ],
            [
              -149.8215348,
              61.1958403
            ],
            [
              -149.8218406,
              61.1958532
            ],
            [
              -149.8221088,
              61.1958429
            ],
            [
              -149.8223824,
              61.1958015
            ],
            [
              -149.8225541,
              61.1957472
            ],
            [
              -149.822715,
              61.1956749
            ],
            [
              -149.8228009,
              61.1955947
            ],
            [
              -149.8228545,
              61.1955275
            ],
            [
              -149.8229618,
              61.19545
            ],
            [
              -149.8231066,
              61.1953078
            ],
            [
              -149.8231066,
              61.1952174
            ],
            [
              -149.8231442,
              61.1951088
            ],
            [
              -149.8231764,
              61.1949382
            ],
            [
              -149.8232354,
              61.1947831
            ],
            [
              -149.8233438,
              61.1945348
            ],
            [
              -149.8233802,
              61.1944523
            ]
          ]
        ]
      }
    }
  ]
}