{
  "type": "FeatureCollection",
  "features": [
    {
      "type": "Feature",
      "properties": {
        "depth_ft": 0,
        "source": "OpenStreetMap way 257882089"
      },
      "geometry": {
        "type": "Polygon",
        "coordinates": [
          [
            [
              -149.4208926,
              61.4232389
            ],
            [
              -149.420652,
              61.4229999
            ],
            [
              -149.4204669,
              61.4227609
            ],
            [
              -149.4200967,
              61.4226812
            ],
            [
              -149.4197265,
              61.4225395
            ],
            [
              -149.4192083,
              61.4225218
            ],
            [
              -149.4188196,
              61.4225484
            ],
            [
              -149.4184495,
              61.4226369
            ],
            [
              -149.4181904,
              61.4227166
            ],
            [
              -149.4179313,
              61.4227343
            ],
            [
              -149.417796,
              61.4226857
            ],
            [
              -149.4178509,
              61.4226024
            ],
            [
              -149.4180053,
              61.4225661
            ],
            [
              -149.4179498,
              61.4224687
            ],
            [
              -149.4177647,
              61.4223979
            ],
            [
              -149.4175426,
              61.422451
            ],
            [
              -149.4175796,
              61.4225484
            ],
            [
              -149.4177277,
              61.4226812
            ],
            [
              -149.4175056,
              61.4227874
            ],
            [
              -149.4172465,
              61.4228937
            ],
            [
              -149.4169318,
              61.4228405
            ],
            [
              -149.4169318,
              61.4227343
            ],
            [
              -149.4168393,
              61.4226281
            ],
            [
              -149.4164136,
              61.4226281
            ],
            [
              -149.4159879,
              61.4227343
            ],
            [
              -149.4157843,
              61.4228582
            ],
            [
              -149.4155992,
              61.4228228
            ],
            [
              -149.4149329,
              61.4230353
            ],
            [
              -149.4144887,
              61.4232566
            ],
            [
              -149.4126935,
              61.4241508
            ],
            [
              -149.412328,
              61.4243017
            ],
            [
              -149.4120087,
              61.4244341
            ],
            [
              -149.4114164,
              61.4244429
            ],
            [
              -149.4108241,
              61.4244783
            ],
            [
              -149.4104355,
              61.4249741
            ],
            [
              -149.4099542,
              61.4249033
            ],
            [
              -149.4097877,
              61.4248767
            ],
            [
              -149.4092694,
              61.4249652
            ],
            [
              -149.4087327,
              61.4251777
            ],
            [
              -149.4086587,
              61.4255229
            ],
            [
              -149.4085846,
              61.4259036
            ],
            [
              -149.4086122,
              61.4261798
            ],
            [
              -149.4086217,
              61.4262665
            ],
            [
              -149.4088623,
              61.4266383
            ],
            [
              -149.4092139,
              61.4268331
            ],
            [
              -149.4095841,
              61.4268773
            ],
            [
              -149.4098617,
              61.4270278
            ],
            [
              -149.4100838,
              61.4273199
            ],
            [
              -149.4103614,
              61.427674
            ],
            [
              -149.4105835,
              61.427913
            ],
            [
              -149.4109907,
              61.4280458
            ],
            [
              -149.4110646,
              61.42807
            ],
            [
              -149.4115645,
              61.4282317
            ],
            [
              -149.4117495,
              61.428329
            ],
            [
              -149.4115459,
              61.4283733
            ],
            [
              -149.4114164,
              61.4285238
            ],
            [
              -149.4115645,
              61.4286831
            ],
            [
              -149.4114719,
              61.4287805
            ],
            [
              -149.4113424,
              61.4289132
            ],
            [
              -149.4115274,
              61.428931
            ],
            [
              -149.4120087,
              61.4288513
            ],
            [
              -149.4122863,
              61.4288513
            ],
            [
              -149.4125639,
              61.4287185
            ],
            [
              -149.412712,
              61.4283999
            ],
            [
              -149.4127305,
              61.4280635
            ],
            [
              -149.41286,
              61.4278688
            ],
            [
              -149.4132302,
              61.4278422
            ],
            [
              -149.4138039,
              61.4279307
            ],
            [
              -149.4141926,
              61.4280369
            ],
            [
              -149.4148774,
              61.4280369
            ],
            [
              -149.4153031,
              61.4280104
            ],
            [
              -149.4160064,
              61.4279838
            ],
            [
              -149.4165987,
              61.4280015
            ],
            [
              -149.4168023,
              61.4281609
            ],
            [
              -149.4171539,
              61.4280989
            ],
            [
              -149.4174871,
              61.4279927
            ],
            [
              -149.4175241,
              61.4278422
            ],
            [
              -149.4178572,
              61.4275855
            ],
            [
              -149.4182089,
              61.4273465
            ],
            [
              -149.4183569,
              61.4271252
            ],
            [
              -149.4182274,
              61.4268065
            ],
            [
              -149.4182829,
              61.4265321
            ],
            [
              -149.4183115,
              61.4262146
            ],
            [
              -149.4183199,
              61.4261338
            ],
            [
              -149.4184495,
              61.4259921
            ],
            [
              -149.418542,
              61.4256646
            ],
            [
              -149.4186901,
              61.4252574
            ],
            [
              -149.4187826,
              61.4249387
            ],
            [
              -149.4187086,
              61.4245669
            ],
            [
              -149.4186531,
              61.4242659
            ],
            [
              -149.4190603,
              61.4241508
            ],
            [
              -149.4194304,
              61.4241773
            ],
            [
              -149.4198006,
              61.4241508
            ],
            [
              -149.4199857,
              61.4239472
            ],
            [
              -149.4203003,
              61.4239118
            ],
            [
              -149.4205039,
              61.4237701
            ],
            [
              -149.420763,
              61.4235222
            ],
            [
              -149.4208926,
              61.4232389
            ]
          ]
        ]
      }
    }
  ]
}