{
  "type": "FeatureCollection",
  "features": [
    {
      "type": "Feature",
      "properties": {
        "depth_ft": 0,
        "source": "OpenStreetMap way 28629986"
      },
      "geometry": {
        "type": "Polygon",
        "coordinates": [
          [
            [
              -149.7462583,
              61.2880602
            ],
            [
              -149.744799,
              61.2873704
            ],
            [
              -149.7445839,
              61.2873569
            ],
            [
              -149.7426534,
              61.2872355
            ],
            [
              -149.7392844,
              61.2862812
            ],
            [
              -149.7385228,
              61.2859794
            ],
            [
              -149.7385657,
              61.2858551
            ],
            [
              -149.7391225,
              61.2855184
            ],
            [
              -149.7385997,
              61.2852535
            ],
            [
              -149.7384898,
              61.2855602
            ],
            [
              -149.737883,
              61.2856858
            ],
            [
              -149.7376156,
              61.2856194
            ],
            [
              -149.7364026,
              61.2851998
            ],
            [
              -149.7361294,
              61.2851455
            ],
            [
              -149.7354436,
              61.2850087
            ],
            [
              -149.7354135,
              61.2852532
            ],
            [
              -149.7353995,
              61.285374
            ],
            [
              -149.7356248,
              61.2859792
            ],
            [
              -149.7347343,
              61.2862627
            ],
            [
              -149.7339811,
              61.2868431
            ],
            [
              -149.7342751,
              61.2873905
            ],
            [
              -149.7328739,
              61.2888099
            ],
            [
              -149.7315564,
              61.2892645
            ],
            [
              -149.7304814,
              61.2896129
            ],
            [
              -149.7293849,
              61.2894212
            ],
            [
              -149.7283238,
              61.2896227
            ],
            [
              -149.7289031,
              61.290251
            ],
            [
              -149.7287894,
              61.2908277
            ],
            [
              -149.7280856,
              61.2910524
            ],
            [
              -149.7282744,
              61.2919435
            ],
            [
              -149.7278464,
              61.2922532
            ],
            [
              -149.7293173,
              61.2922702
            ],
            [
              -149.7299424,
              61.2924341
            ],
            [
              -149.731594,
              61.2926816
            ],
            [
              -149.7317999,
              61.2928242
            ],
            [
              -149.7317428,
              61.2929424
            ],
            [
              -149.7315513,
              61.2930506
            ],
            [
              -149.7307833,
              61.2932821
            ],
            [
              -149.7305691,
              61.2934758
            ],
            [
              -149.7305534,
              61.293632
            ],
            [
              -149.7311051,
              61.2940076
            ],
            [
              -149.7317527,
              61.2942983
            ],
            [
              -149.7319534,
              61.2943089
            ],
            [
              -149.7331893,
              61.2939342
            ],
            [
              -149.7339403,
              61.2940131
            ],
            [
              -149.7352149,
              61.2937925
            ],
            [
              -149.7365818,
              61.293305
            ],
            [
              -149.7362299,
              61.2930236
            ],
            [
              -149.7366,
              61.2927356
            ],
            [
              -149.7373789,
              61.2923557
            ],
            [
              -149.738926,
              61.292214
            ],
            [
              -149.7401159,
              61.2917012
            ],
            [
              -149.7410814,
              61.2912194
            ],
            [
              -149.7417992,
              61.2905741
            ],
            [
              -149.7418619,
              61.2905284
            ],
            [
              -149.7431207,
              61.2896143
            ],
            [
              -149.7433023,
              61.2894826
            ],
            [
              -149.7433892,
              61.2894197
            ],
            [
              -149.7436834,
              61.2887199
            ],
            [
              -149.7462583,
              61.2880602
            ]
          ]
        ]
      }
    }
  ]
}